H1 CPF 01  gfz 2021 08 18 00  7301 tandemx   
H2 1003001  6202 36605    2021 08 18 00 59 42 2021 08 23 00 00 42   120 1 1  0 0 0
H9
10 0 59447  25902.000000  0    6452876.968  -1826959.218   1568642.789
10 0 59447  26022.000000  0    6544601.519  -2041167.103    676442.150
10 0 59447  26142.000000  0    6518490.035  -2220270.438   -227666.863
10 0 59447  26262.000000  0    6375711.377  -2359104.548  -1127770.683
10 0 59447  26382.000000  0    6119575.960  -2453257.733  -2008044.735
10 0 59447  26502.000000  0    5755455.931  -2499184.329  -2853039.552
10 0 59447  26622.000000  0    5290664.966  -2494298.575  -3647956.688
10 0 59447  26742.000000  0    4734302.297  -2437048.349  -4378909.073
10 0 59447  26862.000000  0    4097064.865  -2326967.245  -5033162.251
10 0 59447  26982.000000  0    3391030.958  -2164703.655  -5599350.885
10 0 59447  27102.000000  0    2629423.223  -1952026.532  -6067666.035
10 0 59447  27222.000000  0    1826358.083  -1691808.739  -6430014.542
10 0 59447  27342.000000  0     996582.330  -1387987.861  -6680149.168
10 0 59447  27462.000000  0     155203.599  -1045505.780  -6813765.058
10 0 59447  27582.000000  0    -682580.033   -670228.772  -6828565.423
10 0 59447  27702.000000  0   -1501747.971   -268848.997  -6724296.475
10 0 59447  27822.000000  0   -2287720.493    151232.197  -6502751.030
10 0 59447  27942.000000  0   -3026612.002    582036.843  -6167740.122
10 0 59447  28062.000000  0   -3705471.536   1015157.193  -5725035.141
10 0 59447  28182.000000  0   -4312509.600   1441915.026  -5182279.194
10 0 59447  28302.000000  0   -4837306.201   1853531.285  -4548867.114
10 0 59447  28422.000000  0   -5270996.702   2241304.586  -3835793.932
10 0 59447  28542.000000  0   -5606429.930   2596792.320  -3055473.011
10 0 59447  28662.000000  0   -5838296.719   2911991.955  -2221527.280
10 0 59447  28782.000000  0   -5963225.120   3179518.627  -1348554.708
10 0 59447  28902.000000  0   -5979838.182   3392774.740   -451871.756
10 0 59447  29022.000000  0   -5888772.510   3546106.531    452759.879
10 0 59447  29142.000000  0   -5692656.358   3634942.871   1349418.819
10 0 59447  29262.000000  0   -5396045.463   3655912.879   2222313.394
10 0 59447  29382.000000  0   -5005320.300   3606939.344   3056068.257
10 0 59447  29502.000000  0   -4528548.161   3487305.366   3836002.829
10 0 59447  29622.000000  0   -3975311.662   3297692.519   4548395.689
10 0 59447  29742.000000  0   -3356510.097   3040189.499   5180727.666
10 0 59447  29862.000000  0   -2684138.440   2718273.248   5721902.051
10 0 59447  29982.000000  0   -1971047.792   2336761.113   6162436.236
10 0 59447  30102.000000  0   -1230694.269   1901735.830   6494622.893
10 0 59447  30222.000000  0    -476881.372   1420445.495   6712657.089
10 0 59447  30342.000000  0     276497.137    901180.692   6812731.638
10 0 59447  30462.000000  0    1015712.953    353130.786   6793099.431
10 0 59447  30582.000000  0    1727452.262   -213778.184   6654101.787
10 0 59447  30702.000000  0    2399054.564   -789062.564   6398163.650
10 0 59447  30822.000000  0    3018737.901  -1361874.310   6029754.566
10 0 59447  30942.000000  0    3575808.073  -1921204.867   5555316.203
10 0 59447  31062.000000  0    4060847.138  -2456097.174   4983154.915
10 0 59447  31182.000000  0    4465877.359  -2955861.003   4323302.230
10 0 59447  31302.000000  0    4784498.741  -3410289.459   3587344.346
10 0 59447  31422.000000  0    5011997.044  -3809870.644   2788220.994
10 0 59447  31542.000000  0    5145418.599  -4145988.995   1939996.392
10 0 59447  31662.000000  0    5183608.675  -4411111.933   1057607.936
10 0 59447  31782.000000  0    5127214.165  -4598957.446    156597.307
10 0 59447  31902.000000  0    4978649.846  -4704638.193   -747171.099
10 0 59447  32022.000000  0    4742028.553  -4724777.467  -1637798.641
10 0 59447  32142.000000  0    4423056.918  -4657594.362  -2499640.653
10 0 59447  32262.000000  0    4028900.032  -4502956.147  -3317587.707
10 0 59447  32382.000000  0    3568018.707  -4262397.326  -4077334.011
10 0 59447  32502.000000  0    3049984.385  -3939104.713  -4765627.746
10 0 59447  32622.000000  0    2485275.456  -3537869.938  -5370498.146
10 0 59447  32742.000000  0    1885061.566  -3065011.672  -5881454.767
10 0 59447  32862.000000  0    1260982.083  -2528271.061  -6289658.879
10 0 59447  32982.000000  0     624920.516  -1936681.243  -6588066.769
10 0 59447  33102.000000  0     -11220.185  -1300412.064  -6771540.663
10 0 59447  33222.000000  0    -635736.174   -630595.091  -6836926.884
10 0 59447  33342.000000  0   -1237332.265     60868.030  -6783103.419
10 0 59447  33462.000000  0   -1805321.563    761511.900  -6610996.524
10 0 59447  33582.000000  0   -2329810.799   1458526.195  -6323566.291
10 0 59447  33702.000000  0   -2801869.003   2138983.990  -5925761.335
10 0 59447  33822.000000  0   -3213678.834   2790076.646  -5424443.439
10 0 59447  33942.000000  0   -3558668.033   3399353.200  -4828281.175
10 0 59447  34062.000000  0   -3831619.104   3954959.271  -4147611.191
10 0 59447  34182.000000  0   -4028752.812   4445870.449  -3394268.058
10 0 59447  34302.000000  0   -4147783.262   4862115.278  -2581386.510
10 0 59447  34422.000000  0   -4187945.664   5194983.378  -1723177.979
10 0 59447  34542.000000  0   -4149994.784   5437213.795   -834684.031
10 0 59447  34662.000000  0   -4036172.282   5583158.972     68490.840
10 0 59447  34782.000000  0   -3850142.908   5628916.214    970459.508
10 0 59447  34902.000000  0   -3596902.120   5572426.730   1855340.019
10 0 59447  35022.000000  0   -3282656.084   5413537.033   2707546.153
10 0 59447  35142.000000  0   -2914675.669   5154019.620   3512070.876
10 0 59447  35262.000000  0   -2501131.348   4797555.242   4254755.805
10 0 59447  35382.000000  0   -2050912.611   4349677.702   4922543.862
10 0 59447  35502.000000  0   -1573436.681   3817681.737   5503709.749
10 0 59447  35622.000000  0   -1078450.139   3210496.434   5988063.954
10 0 59447  35742.000000  0    -575829.135   2538527.638   6367126.326
10 0 59447  35862.000000  0     -75382.807   1813473.739   6634267.809
10 0 59447  35982.000000  0     413337.281   1048118.898   6784821.062
10 0 59447  36102.000000  0     881218.914    256105.303   6816156.575
10 0 59447  36222.000000  0    1319757.995   -548309.156   6727725.415
10 0 59447  36342.000000  0    1721212.444  -1350507.032   6521069.320
10 0 59447  36462.000000  0    2078739.013  -2135776.236   6199795.549
10 0 59447  36582.000000  0    2386510.914  -2889580.235   5769518.837
10 0 59447  36702.000000  0    2639814.659  -3597829.261   5237768.613
10 0 59447  36822.000000  0    2835123.381  -4247146.905   4613862.602
10 0 59447  36942.000000  0    2970146.610  -4825128.182   3908749.392
10 0 59447  37062.000000  0    3043854.984  -5320583.555   3134818.971
10 0 59447  37182.000000  0    3056478.728  -5723763.283   2305685.988
10 0 59447  37302.000000  0    3009479.243  -6026556.688   1435947.392
10 0 59447  37422.000000  0    2905494.626  -6222660.008    540920.836
10 0 59447  37542.000000  0    2748262.179  -6307710.699   -363631.002
10 0 59447  37662.000000  0    2542517.202  -6279384.675  -1261787.471
10 0 59447  37782.000000  0    2293870.665  -6137449.683  -2137759.948
10 0 59447  37902.000000  0    2008670.572  -5883777.996  -2976176.280
10 0 59447  38022.000000  0    1693848.288  -5522316.411  -3762357.388
10 0 59447  38142.000000  0    1356756.086  -5059012.962  -4482574.802
10 0 59447  38262.000000  0    1005001.916  -4501706.910  -5124287.268
10 0 59447  38382.000000  0     646282.857  -3859985.087  -5676352.580
10 0 59447  38502.000000  0     288221.422  -3145007.301  -6129212.132
10 0 59447  38622.000000  0     -61791.722  -2369305.212  -6475045.154
10 0 59447  38742.000000  0    -396745.577  -1546559.351  -6707892.230
10 0 59447  38862.000000  0    -710144.489   -691358.341  -6823747.906
10 0 59447  38982.000000  0    -996129.575    181056.739  -6820622.302
10 0 59447  39102.000000  0   -1249585.094   1055057.937  -6698570.275
10 0 59447  39222.000000  0   -1466227.777   1914903.015  -6459690.424
10 0 59447  39342.000000  0   -1642677.611   2745011.607  -6108092.890
10 0 59447  39462.000000  0   -1776510.434   3530242.755  -5649837.836
10 0 59447  39582.000000  0   -1866290.560   4256169.295  -5092841.052
10 0 59447  39702.000000  0   -1911583.329   4909344.849  -4446749.230
10 0 59447  39822.000000  0   -1912947.132   5477558.682  -3722782.995
10 0 59447  39942.000000  0   -1871903.945   5950071.491  -2933550.236
10 0 59447  40062.000000  0   -1790888.936   6317828.025  -2092833.282
10 0 59447  40182.000000  0   -1673180.849   6573642.461  -1215350.967
10 0 59447  40302.000000  0   -1522813.489   6712349.016   -316499.888
10 0 59447  40422.000000  0   -1344470.689   6730916.127    587919.001
10 0 59447  40542.000000  0   -1143366.622   6628520.066   1481987.032
10 0 59447  40662.000000  0    -925114.913   6406570.097   2349959.528
10 0 59447  40782.000000  0    -695589.484   6068687.496   3176551.133
10 0 59447  40902.000000  0    -460781.597   5620642.092   3947210.895
10 0 59447  41022.000000  0    -226657.055   5070248.087   4648383.284
10 0 59447  41142.000000  0        984.385   4427216.567   5267751.717
10 0 59447  41262.000000  0     216644.044   3702972.483   5794450.344
10 0 59447  41382.000000  0     415248.531   2910444.849   6219251.827
10 0 59447  41502.000000  0     592261.988   2063827.524   6534723.794
10 0 59447  41622.000000  0     743784.180   1178320.268   6735352.743
10 0 59447  41742.000000  0     866632.478    269852.691   6817634.516
10 0 59447  41862.000000  0     958406.470   -645201.684   6780131.199
10 0 59447  41982.000000  0    1017534.096  -1550319.891   6623496.033
10 0 59447  42102.000000  0    1043298.663  -2429127.658   6350463.051
10 0 59447  42222.000000  0    1035846.320  -3265696.464   5965802.954
10 0 59447  42342.000000  0     996173.017  -4044834.736   5476243.174
99
